KUIPER-00102            
1 65140U 25171J   26065.30613826  .00006191  00000+0  83888-3 0  9994
2 65140  51.8982 168.0390 0000614  92.1108 267.9925 14.80007137 32455
KUIPER-00103            
1 65141U 25171K   26065.59129412 -.00000036  00000+0  24390-4 0  9996
2 65141  51.8992 184.2705 0001924 120.4584 239.6569 14.79911828 32252
KUIPER-00104            
1 65142U 25171L   26065.26708175 -.00002012  00000+0 -23520-3 0  9990
2 65142  51.9027 173.1666 0000686  61.9924 298.1108 14.79897157 32388
KUIPER-00105            
1 65143U 25171M   26065.56270267  .00006893  00000+0  93414-3 0  9998
2 65143  51.8997 179.4783 0001370  96.6471 263.4647 14.79850340 32326
KUIPER-00106            
1 65144U 25171N   26065.57292728  .00006402  00000+0  56946-3 0  9991
2 65144  51.8925 169.1342 0007995  89.0039 271.1846 14.97173163 32474
KUIPER-00107            
1 65145U 25171P   26064.56886313  .00007468  00000+0  10058-2 0  9995
2 65145  51.9009 166.3150 0000308  28.6535 331.4444 14.80005909 32429
KUIPER-00108            
1 65146U 25171Q   26065.60209127  .00000876  00000+0  14397-3 0  9991
2 65146  51.9032 174.2621 0000972 160.0521 200.0480 14.79927127 32402
KUIPER-00109            
1 65147U 25171R   26065.57370640  .00001623  00000+0  24179-3 0  9997
2 65147  51.9005 169.3281 0000512  89.2294 270.8727 14.79933449 32468
KUIPER-00110            
1 65148U 25171S   26066.00023999  .00005853  00000+0  79574-3 0  9997
2 65148  51.9003 180.0409 0001853 181.0366 179.0593 14.79951868 32342
KUIPER-00111            
1 65149U 25171T   26066.02718994  .00005783  00000+0  78493-3 0  9997
2 65149  51.8976 184.8186 0001797 143.5186 216.5899 14.80043270 32285
KUIPER-00112            
1 65150U 25171U   26065.53989245  .00006814  00000+0  92008-3 0  9997
2 65150  51.9027 169.5330 0000228  71.6977 288.4010 14.80018328 32451
KUIPER-00114            
1 65151U 25171V   26065.34954792  .00003742  00000+0  51969-3 0  9994
2 65151  51.9003 190.3731 0001131 135.9347 224.1705 14.79924345 32149
KUIPER-00115            
1 65152U 25171W   26065.62760426  .00004768  00000+0  65377-3 0  9992
2 65152  51.9008 181.6266 0001271  48.6301 311.4771 14.79950936 32290
KUIPER-00116            
1 65153U 25171X   26064.64315931  .00007202  00000+0  97273-3 0  9997
2 65153  51.8999 191.0223 0001073 131.9516 228.1538 14.79931574 32079
KUIPER-00118            
1 65154U 25171Y   26066.05826320  .00006003  00000+0  81374-3 0  9997
2 65154  51.8998 187.2178 0000613  77.9795 282.1236 14.80037745 32256
KUIPER-00119            
1 65155U 25171Z   26065.32918543  .00006271  00000+0  84952-3 0  9998
2 65155  51.9008 178.0294 0001051 141.8268 218.2769 14.79999385 32313
KUIPER-00120            
1 65762U 25217A   26066.17375507 -.00007247  00000+0 -92254-3 0  9994
2 65762  51.8989  64.1936 0000529  92.5281 267.5741 14.79936200 24368
